[{"OBJECT_NAME":"STARLINK-4070","OBJECT_ID":"2022-053J","EPOCH":"2026-03-09T13:08:41.864064","MEAN_MOTION":15.08836537,"ECCENTRICITY":0.00013442,"INCLINATION":53.2149,"RA_OF_ASC_NODE":154.7596,"ARG_OF_PERICENTER":82.1516,"MEAN_ANOMALY":277.9629,"EPHEMERIS_TYPE":0,"CLASSIFICATION_TYPE":"U","NORAD_CAT_ID":52664,"ELEMENT_SET_NO":999,"REV_AT_EPOCH":21102,"BSTAR":8.2823364e-5,"MEAN_MOTION_DOT":1.03e-5,"MEAN_MOTION_DDOT":0},{"OBJECT_NAME":"CZ-6A DEB","OBJECT_ID":"2024-140KH","EPOCH":"2026-03-09T14:59:57.464160","MEAN_MOTION":15.05079233,"ECCENTRICITY":0.0091207,"INCLINATION":89.0655,"RA_OF_ASC_NODE":284.096,"ARG_OF_PERICENTER":124.4022,"MEAN_ANOMALY":236.5882,"EPHEMERIS_TYPE":0,"CLASSIFICATION_TYPE":"U","NORAD_CAT_ID":60878,"ELEMENT_SET_NO":999,"REV_AT_EPOCH":8457,"BSTAR":0.0027733,"MEAN_MOTION_DOT":0.00043481,"MEAN_MOTION_DDOT":0}]
